{
   "version":0.6,
   "generator":"Overpass API 0.7.59 e21c39fe",
   "osm3s":{
      "timestamp_osm_base":"2023-01-06T09:26:24Z",
      "copyright":"The data included in this document is from www.openstreetmap.org. The data is made available under ODbL."
   },
   "elements":[
      {
         "type":"node",
         "id":26863579,
         "lat":49.5459784,
         "lon":18.4472696,
         "tags":{
            "ele":"1324",
            "historic":"memorial",
            "name":"Lysá hora",
            "name:de":"Kahlberg",
            "name:pl":"Łysa Góra",
            "natural":"peak",
            "prominence":"769",
            "source:ele":"cs.wikipedia.org",
            "wikidata":"Q1573557",
            "wikipedia":"cs:Lysá hora (Moravskoslezské Beskydy)"
         }
      },
      {
         "type":"node",
         "id":26864720,
         "lat":49.5081691,
         "lon":18.3704576,
         "tags":{
            "ele":"1278",
            "name":"Smrk",
            "natural":"peak",
            "prominence":"594",
            "wikidata":"Q582495",
            "wikipedia":"cs:Smrk (Moravskoslezské Beskydy)"
         }
      },
      {
         "type":"node",
         "id":444412667,
         "lat":49.5615584,
         "lon":18.5075669,
         "tags":{
            "ele":"1203",
            "name":"Travný",
            "natural":"peak",
            "wikidata":"Q2450681",
            "wikipedia":"cs:Travný"
         }
      },
      {
         "type":"node",
         "id":477762489,
         "lat":49.4605267,
         "lon":18.5777246,
         "tags":{
            "name":"Potraviny",
            "shop":"convenience"
         }
      },
      {
         "type":"node",
         "id":658710542,
         "lat":49.5103366,
         "lon":18.3867136,
         "tags":{
            "ele":"1174",
            "name":"Malý Smrk",
            "natural":"peak",
            "source":"ČÚZK",
            "wikidata":"Q10950189",
            "wikipedia":"cs:Malý Smrk"
         }
      },
      {
         "type":"node",
         "id":1309436525,
         "lat":49.4926400,
         "lon":18.5418633,
         "tags":{
            "ele":"903",
            "import_ref":"Záväzné názvoslovie vrchov",
            "name":"Súľov",
            "natural":"peak",
            "source:name":"skgeodesy.sk"
         }
      },
      {
         "type":"node",
         "id":1362736228,
         "lat":49.5278151,
         "lon":18.3870298,
         "tags":{
            "ele":"613",
            "name":"Skalka",
            "natural":"peak"
         }
      },
      {
         "type":"node",
         "id":2276630296,
         "lat":49.5537131,
         "lon":18.3754353,
         "tags":{
            "name":"Ruma Sport",
            "opening_hours":"Apr-Nov: Mo-Fr 10:00-18:00; Sa 09:00-12:00; Dec-Mar: Mo 13:00-18:00; Tu-Su 09:00-12:00,13:00-18:00",
            "shop":"sports",
            "website":"https://www.rumasport.cz/"
         }
      },
      {
         "type":"node",
         "id":2312840115,
         "lat":49.5736373,
         "lon":18.4361853,
         "tags":{
            "ele":"996",
            "name":"Kykulka",
            "natural":"peak"
         }
      },
      {
         "type":"node",
         "id":2399839706,
         "lat":49.5389880,
         "lon":18.4709853,
         "tags":{
            "ele":"1081",
            "name":"Zimný",
            "natural":"peak",
            "source":"ČÚZK"
         }
      },
      {
         "type":"node",
         "id":2425951181,
         "lat":49.5140154,
         "lon":18.5863133,
         "tags":{
            "ele":"1002",
            "natural":"peak"
         }
      },
      {
         "type":"node",
         "id":2613835629,
         "lat":49.4741441,
         "lon":18.5766284,
         "tags":{
            "ele":"828",
            "import_ref":"Záväzné názvoslovie vrchov",
            "name":"Vrchpredmier",
            "natural":"peak",
            "source:name":"skgeodesy.sk"
         }
      },
      {
         "type":"node",
         "id":2905194346,
         "lat":49.5776104,
         "lon":18.4420405,
         "tags":{
            "ele":"962",
            "name":"Muroňka",
            "natural":"peak"
         }
      },
      {
         "type":"node",
         "id":3139071597,
         "lat":49.5569444,
         "lon":18.3997222,
         "tags":{
            "ele":"783",
            "name":"Ostrý",
            "natural":"peak"
         }
      },
      {
         "type":"node",
         "id":3139071622,
         "lat":49.5236111,
         "lon":18.4252778,
         "tags":{
            "ele":"944",
            "name":"Čupel",
            "natural":"peak",
            "source":"ČÚZK"
         }
      },
      {
         "type":"node",
         "id":3139111649,
         "lat":49.5644786,
         "lon":18.5253901,
         "tags":{
            "ele":"1105",
            "name":"Malý Travný",
            "natural":"peak",
            "source":"ČÚZK"
         }
      },
      {
         "type":"node",
         "id":3192034086,
         "lat":49.5498348,
         "lon":18.5669636,
         "tags":{
            "ele":"870",
            "name":"Mituří",
            "natural":"peak",
            "source":"ČÚZK"
         }
      },
      {
         "type":"node",
         "id":3349994611,
         "lat":49.5706927,
         "lon":18.4050487,
         "tags":{
            "seasonal":"winter",
            "shop":"sports",
            "ski:rental":"yes",
            "ski:repair":"yes",
            "sport":"ski"
         }
      },
      {
         "type":"node",
         "id":3365925773,
         "lat":49.5315634,
         "lon":18.3916056,
         "tags":{
            "amenity":"ticket_booth",
            "shop":"ticket"
         }
      },
      {
         "type":"node",
         "id":3443393909,
         "lat":49.5326013,
         "lon":18.5286926,
         "tags":{
            "ele":"912",
            "name":"Vysoký Rykali",
            "natural":"peak"
         }
      },
      {
         "type":"node",
         "id":3443404530,
         "lat":49.5078174,
         "lon":18.4683792,
         "tags":{
            "ele":"832",
            "name":"Okrouhlice",
            "natural":"peak"
         }
      },
      {
         "type":"node",
         "id":3443420115,
         "lat":49.4968706,
         "lon":18.4529391,
         "tags":{
            "ele":"919",
            "name":"Těšiňočka",
            "natural":"peak"
         }
      },
      {
         "type":"node",
         "id":3633546535,
         "lat":49.5537885,
         "lon":18.3753735,
         "tags":{
            "name":"Ruma Sport",
            "service:bicycle:rental":"yes",
            "service:bicycle:repair":"yes",
            "shop":"bicycle",
            "website":"https://www.rumasport.cz/"
         }
      },
      {
         "type":"node",
         "id":3633547190,
         "lat":49.5396227,
         "lon":18.3927726,
         "tags":{
            "shop":"art"
         }
      },
      {
         "type":"node",
         "id":3649533666,
         "lat":49.4680734,
         "lon":18.4320812,
         "tags":{
            "name":"Coop",
            "opening_hours":"Mo 05:30-12:00; Tu-Fr 05:30-11:30,13:00-16:00; Sa 06:30-11:00",
            "shop":"supermarket"
         }
      },
      {
         "type":"node",
         "id":4159321915,
         "lat":49.5806440,
         "lon":18.3955562,
         "tags":{
            "shop":"general"
         }
      },
      {
         "type":"node",
         "id":4236583438,
         "lat":49.5223601,
         "lon":18.4659516,
         "tags":{
            "ele":"872",
            "name":"Řehucí",
            "natural":"peak"
         }
      },
      {
         "type":"node",
         "id":4296925152,
         "lat":49.5371984,
         "lon":18.3929466,
         "tags":{
            "name":"Kadeřnický salon M M",
            "opening_hours":"Tu,We,Th 07:30-15:30; Fr 07:00-16:30; Sa 06:30-12:00; Mo,Su,PH off",
            "shop":"hairdresser"
         }
      },
      {
         "type":"node",
         "id":4296926855,
         "lat":49.5371031,
         "lon":18.3929956,
         "tags":{
            "name":"Ovoce zelenina",
            "opening_hours":"Mo-Fr 07:30-12:15,12:45-16:00; Sa 07:30-12:00; Su,PH off",
            "shop":"greengrocer"
         }
      },
      {
         "type":"node",
         "id":4338164650,
         "lat":49.5330115,
         "lon":18.4467112,
         "tags":{
            "ele":"1059",
            "name":"Kobylanka",
            "natural":"peak",
            "source":"ČÚZK"
         }
      },
      {
         "type":"node",
         "id":4365992734,
         "lat":49.5397793,
         "lon":18.3909408,
         "tags":{
            "name":"Ovoce zelenina",
            "opening_hours":"Mo-Fr 07:30-12:00,13:00-17:00; Sa 07:00-11:00",
            "shop":"greengrocer"
         }
      },
      {
         "type":"node",
         "id":4365992737,
         "lat":49.5381397,
         "lon":18.3926169,
         "tags":{
            "level":"2",
            "name":"Textil - obuv",
            "opening_hours":"Mo-Fr 08:00-16:30; Sa 08:00-11:30; Su,PH off",
            "shop":"clothes"
         }
      },
      {
         "type":"node",
         "id":4542979628,
         "lat":49.5548474,
         "lon":18.4491247,
         "tags":{
            "ele":"1220",
            "name":"Malchor",
            "natural":"peak",
            "source":"ČÚZK",
            "wikidata":"Q10952113",
            "wikipedia":"cs:Malchor"
         }
      },
      {
         "type":"node",
         "id":5124736024,
         "lat":49.5310342,
         "lon":18.4840511,
         "tags":{
            "ele":"929",
            "name":"Hoserka",
            "natural":"peak"
         }
      },
      {
         "type":"node",
         "id":5124736025,
         "lat":49.5276362,
         "lon":18.5092552,
         "tags":{
            "ele":"832",
            "name":"Obidová",
            "natural":"peak",
            "source":"ČÚZK"
         }
      },
      {
         "type":"node",
         "id":5124736026,
         "lat":49.5228745,
         "lon":18.5226111,
         "tags":{
            "ele":"774",
            "natural":"peak"
         }
      },
      {
         "type":"node",
         "id":5555224017,
         "lat":49.4600512,
         "lon":18.3749771,
         "tags":{
            "ele":"924",
            "natural":"peak"
         }
      },
      {
         "type":"node",
         "id":5555224124,
         "lat":49.4641444,
         "lon":18.3713052,
         "tags":{
            "ele":"846",
            "natural":"peak"
         }
      },
      {
         "type":"node",
         "id":5555224125,
         "lat":49.4686609,
         "lon":18.3697307,
         "tags":{
            "ele":"801",
            "natural":"peak",
            "source":"ČÚZK"
         }
      },
      {
         "type":"node",
         "id":5614157008,
         "lat":49.5304441,
         "lon":18.3982564,
         "tags":{
            "amenity":"fuel",
            "brand":"EuroOil",
            "building":"yes",
            "building:ruian:type":"19",
            "contact:website":"https://www.ceproas.cz/eurooil",
            "fuel:diesel":"yes",
            "fuel:e85":"yes",
            "fuel:octane_95":"yes",
            "internet_access":"wlan",
            "internet_access:fee":"no",
            "name":"EuroOil Ostravice",
            "opening_hours":"Mo-Su 06:00-20:00",
            "operator":"Čepro, a.s.",
            "phone":"+420 558 682 281",
            "ref":"509",
            "ref:ruian:building":"26977095",
            "shop":"gas",
            "source":"cuzk:ruian"
         }
      },
      {
         "type":"node",
         "id":5657428373,
         "lat":49.4678381,
         "lon":18.5481245,
         "tags":{
            "name":"Čudácka",
            "natural":"peak",
            "source":"ZBGIS"
         }
      },
      {
         "type":"node",
         "id":5657428562,
         "lat":49.5083237,
         "lon":18.5724701,
         "tags":{
            "ele":"984",
            "name":"Polomka",
            "natural":"peak",
            "source":"ZBGIS;ČÚZK"
         }
      },
      {
         "type":"node",
         "id":5907098655,
         "lat":49.5762313,
         "lon":18.4164602,
         "tags":{
            "ele":"717",
            "name":"Hradová",
            "natural":"peak"
         }
      },
      {
         "type":"node",
         "id":6391746189,
         "lat":49.5708167,
         "lon":18.4051962,
         "tags":{
            "shop":"ticket"
         }
      },
      {
         "type":"node",
         "id":6765014921,
         "lat":49.5363742,
         "lon":18.5715210,
         "tags":{
            "ele":"898",
            "natural":"peak"
         }
      },
      {
         "type":"node",
         "id":6765014922,
         "lat":49.5350565,
         "lon":18.5557318,
         "tags":{
            "ele":"797",
            "natural":"peak"
         }
      },
      {
         "type":"node",
         "id":7176795952,
         "lat":49.5048796,
         "lon":18.4846627,
         "tags":{
            "ele":"662",
            "name":"Jestřábník",
            "natural":"peak"
         }
      },
      {
         "type":"node",
         "id":7176806819,
         "lat":49.4770488,
         "lon":18.4958902,
         "tags":{
            "ele":"745.8",
            "name":"Velký Lúčný",
            "natural":"peak"
         }
      },
      {
         "type":"node",
         "id":7176808013,
         "lat":49.5039028,
         "lon":18.4358010,
         "tags":{
            "ele":"819",
            "natural":"peak"
         }
      },
      {
         "type":"node",
         "id":7176812588,
         "lat":49.5036329,
         "lon":18.4187721,
         "tags":{
            "ele":"575.5",
            "name":"Šance",
            "natural":"peak"
         }
      },
      {
         "type":"node",
         "id":8765596216,
         "lat":49.5394870,
         "lon":18.3925789,
         "tags":{
            "shop":"hairdresser"
         }
      }
   ]
}